ONEWEB-0228             
1 48780U 21045P   23245.51391362  .00000190  00000+0  47011-3 0  9990
2 48780  87.8961 102.0315 0001790  87.4310 272.7025 13.15547444110397
